$$SOE
2456256.993055556 = A.D. 2012-Nov-25 11:50:00.0000 TDB 
 X = 6.578653533088613E+07 Y = 1.208524468036366E+08 Z = 5.237926052522742E+07
 VX=-3.465489698014448E+01 VY= 1.249674764240064E+01 VZ= 5.944043924018615E+00
 LT= 4.911075066864924E+02 RG= 1.472303265717950E+08 RR=-3.112255880297785E+00
2456256.996527778 = A.D. 2012-Nov-25 11:55:00.0000 TDB 
 X = 6.577617795509184E+07 Y = 1.208558668505149E+08 Z = 5.238121328361699E+07
 VX=-3.426115152501609E+01 VY= 1.031599033336772E+01 VZ= 7.051744048360939E+00
 LT= 4.911037523704244E+02 RG= 1.472292010561529E+08 RR=-4.329580897700769E+00
2456257.000000000 = A.D. 2012-Nov-25 12:00:00.0000 TDB 
 X = 6.576605516077171E+07 Y = 1.208586553750644E+08 Z = 5.238347229824043E+07
 VX=-3.310487089750132E+01 VY= 8.324372941529749E+00 VZ= 7.967326436073008E+00
 LT= 4.910989845600187E+02 RG= 1.472277717025521E+08 RR=-5.119604899333730E+00
2456257.003472222 = A.D. 2012-Nov-25 12:05:00.0000 TDB 
 X = 6.575637928845850E+07 Y = 1.208609017816626E+08 Z = 5.238596454357342E+07
 VX=-3.130830047430508E+01 VY= 6.734458824748557E+00 VZ= 8.592499852275049E+00
 LT= 4.910936774816793E+02 RG= 1.472261806804919E+08 RR=-5.397554416068605E+00
2456257.006944444 = A.D. 2012-Nov-25 12:10:00.0000 TDB 
 X = 6.574731524682406E+07 Y = 1.208627534661070E+08 Z = 5.238859188218780E+07
 VX=-2.906268443309932E+01 VY= 5.716735295982344E+00 VZ= 8.859709657839932E+00
 LT= 4.910883635709389E+02 RG= 1.472245876101294E+08 RR=-5.133010765665018E+00
2456257.010416667 = A.D. 2012-Nov-25 12:15:00.0000 TDB 
 X = 6.573896264120239E+07 Y = 1.208644002318170E+08 Z = 5.239124152271403E+07
 VX=-2.660821873693818E+01 VY= 5.380752479973129E+00 VZ= 8.739764322949352E+00
 LT= 4.910835766584136E+02 RG= 1.472231525298572E+08 RR=-4.353718567352901E+00
2456257.013888889 = A.D. 2012-Nov-25 12:20:00.0000 TDB 
 X = 6.573134487146778E+07 Y = 1.208660539627907E+08 Z = 5.239379815973625E+07
 VX=-2.420806259893619E+01 VY= 5.762751493590618E+00 VZ= 8.245276901200752E+00
 LT= 4.910797945484798E+02 RG= 1.472220186818237E+08 RR=-3.142913735136533E+00
2456257.017361111 = A.D. 2012-Nov-25 12:25:00.0000 TDB 
 X = 6.572440654222444E+07 Y = 1.208679257983959E+08 Z = 5.239615643570759E+07
 VX=-2.211950173409215E+01 VY= 6.821589634564407E+00 VZ= 7.429334942258346E+00
 LT= 4.910773875150163E+02 RG= 1.472212970713452E+08 RR=-1.630274584125718E+00
2456257.020833333 = A.D. 2012-Nov-25 12:30:00.0000 TDB 
 X = 6.571801949340452E+07 Y = 1.208702034126361E+08 Z = 5.239823230112058E+07
 VX=-2.056593165289637E+01 VY= 8.443473936971577E+00 VZ= 6.379570906553592E+00
 LT= 4.910765786031744E+02 RG= 1.472210545656759E+08 RR= 2.234974717950329E-02
2456257.024305556 = A.D. 2012-Nov-25 12:35:00.0000 TDB 
 X = 6.571199668420500E+07 Y = 1.208730309418506E+08 Z = 5.239997200794569E+07
 VX=-1.971301500933730E+01 VY= 1.045463856446261E+01 VZ= 5.208500631529799E+00
 LT= 4.910774200549998E+02 RG= 1.472213068265869E+08 RR= 1.638537017869087E+00
2456257.027777778 = A.D. 2012-Nov-25 12:40:00.0000 TDB 
 X = 6.570611228845817E+07 Y = 1.208764936888722E+08 Z = 5.240135779897057E+07
 VX=-1.965142108719325E+01 VY= 1.264016105578500E+01 VZ= 4.041388584247146E+00
 LT= 4.910797881252034E+02 RG= 1.472220167561739E+08 RR= 3.046107685466363E+00
2456257.031250000 = A.D. 2012-Nov-25 12:45:00.0000 TDB 
 X = 6.570012579606560E+07 Y = 1.208806091238204E+08 Z = 5.240240975214487E+07
 VX=-2.038753010576117E+01 VY= 1.476675884987311E+01 VZ= 3.002964288162516E+00
 LT= 4.910833965209367E+02 RG= 1.472230985260003E+08 RR= 4.095241053023457E+00
2456257.034722222 = A.D. 2012-Nov-25 12:50:00.0000 TDB 
 X = 6.569380761975423E+07 Y = 1.208853250469229E+08 Z = 5.240318362558657E+07
 VX=-2.184275991113602E+01 VY= 1.660737914309068E+01 VZ= 2.204238627767158E+00
 LT= 4.910878269258084E+02 RG= 1.472244267279667E+08 RR= 4.674247984951567E+00
2456257.038194444 = A.D. 2012-Nov-25 12:55:00.0000 TDB 
 X = 6.568696358519914E+07 Y = 1.208905251172426E+08 Z = 5.240376491478920E+07
 VX=-2.386167518934204E+01 VY= 1.796532717628848E+01 VZ= 1.730644165455422E+00
 LT= 4.910925735121677E+02 RG= 1.472258497187584E+08 RR= 4.721515401853599E+00
2456257.041666667 = A.D. 2012-Nov-25 13:00:00.0000 TDB 
 X = 6.567945571996044E+07 Y = 1.208960412465523E+08 Z = 5.240425970617465E+07
 VX=-2.622840462700180E+01 VY= 1.869547835690240E+01 VZ= 1.632754316707289E+00
 LT= 4.910970969172187E+02 RG= 1.472272058014772E+08 RR= 4.232269845187695E+00
2456257.045138889 = A.D. 2012-Nov-25 13:05:00.0000 TDB 
 X = 6.567121703931373E+07 Y = 1.209016716034766E+08 Z = 5.240478328194914E+07
 VX=-2.868989787209331E+01 VY= 1.872006244394553E+01 VZ= 1.920742089758755E+00
 LT= 4.911008819590507E+02 RG= 1.472283405284716E+08 RR= 3.259171455933271E+00
2456257.048611111 = A.D. 2012-Nov-25 13:10:00.0000 TDB 
 X = 6.566225864220852E+07 Y = 1.209072022710091E+08 Z = 5.240544772870871E+07
 VX=-3.098341274326404E+01 VY= 1.803696297227426E+01 VZ= 2.563351227692648E+00
 LT= 4.911034927201487E+02 RG= 1.472291232149585E+08 RR= 1.906493986521367E+00
2456257.052083333 = A.D. 2012-Nov-25 13:15:00.0000 TDB 
 X = 6.565266834531372E+07 Y = 1.209124301287288E+08 Z = 5.240634993768784E+07
 VX=-3.286485073552399E+01 VY= 1.671952704759272E+01 VZ= 3.491496944666685E+00
 LT= 4.911046188599761E+02 RG= 1.472294608231854E+08 RR= 3.186190508077517E-01
2456257.055555556 = A.D. 2012-Nov-25 13:20:00.0000 TDB 
 X = 6.564260111819217E+07 Y = 1.209171844272542E+08 Z = 5.240756131335299E+07
 VX=-3.413455782056905E+01 VY= 1.490819472919397E+01 VZ= 4.605915506749601E+00
 LT= 4.911041081908043E+02 RG= 1.472293077284191E+08 RR=-1.335599790041369E+00
2456257.059027778 = A.D. 2012-Nov-25 13:25:00.0000 TDB 
 X = 6.563226250338719E+07 Y = 1.209213447861395E+08 Z = 5.240912025573268E+07
 VX=-3.465792845003983E+01 VY= 1.279531477201081E+01 VZ= 5.787804800598082E+00
 LT= 4.911019823422125E+02 RG= 1.472286704150445E+08 RR=-2.880674189723123E+00
2456257.062500000 = A.D. 2012-Nov-25 13:30:00.0000 TDB 
 X = 6.562188685696436E+07 Y = 1.209248538452846E+08 Z = 5.241102813357173E+07
 VX=-3.437913084269516E+01 VY= 1.060500969947194E+01 VZ= 6.911250334842997E+00
 LT= 4.910984342566145E+02 RG= 1.472276067257419E+08 RR=-4.152675332588528E+00
2456257.065972222 = A.D. 2012-Nov-25 13:35:00.0000 TDB 
 X = 6.561171262708405E+07 Y = 1.209277233738811E+08 Z = 5.241324910868564E+07
 VX=-3.332701852604279E+01 VY= 8.570008726487846E+00 VZ= 7.856294435364733E+00
 LT= 4.910938079678227E+02 RG= 1.472262197992536E+08 RR=-5.016207040802850E+00
2456257.069444444 = A.D. 2012-Nov-25 13:40:00.0000 TDB 
 X = 6.560195710225532E+07 Y = 1.209300332139249E+08 Z = 5.241571384043331E+07
 VX=-3.161268505539932E+01 VY= 6.907373971506436E+00 VZ= 8.521553372146768E+00
 LT= 4.910885626019598E+02 RG= 1.472246472781284E+08 RR=-5.378730781196833E+00
2456257.072916667 = A.D. 2012-Nov-25 13:45:00.0000 TDB 
 X = 6.559279317657605E+07 Y = 1.209319230417591E+08 Z = 5.241832676252972E+07
 VX=-2.941847027404850E+01 VY= 5.795283495249943E+00 VZ= 8.835202495497194E+00
 LT= 4.910832239678801E+02 RG= 1.472230467958953E+08 RR=-5.200804791410069E+00
2456257.076388889 = A.D. 2012-Nov-25 13:50:00.0000 TDB 
 X = 6.558433064142306E+07 Y = 1.209335776348922E+08 Z = 5.242097625107957E+07
 VX=-2.697895348437670E+01 VY= 5.353393084515265E+00 VZ= 8.763048781062746E+00
 LT= 4.910783285295715E+02 RG= 1.472215791804118E+08 RR=-4.500862299754727E+00
2456257.079861111 = A.D. 2012-Nov-25 13:55:00.0000 TDB 
 X = 6.557660418305863E+07 Y = 1.209352071095460E+08 Z = 5.242354662748086E+07
 VX=-2.455565156678918E+01 VY= 5.629351763869350E+00 VZ= 8.312534407246105E+00
 LT= 4.910743657484760E+02 RG= 1.472203911685266E+08 RR=-3.353590374178775E+00
2456257.083333333 = A.D. 2012-Nov-25 14:00:00.0000 TDB 
 X = 6.556956955813038E+07 Y = 1.209370242935767E+08 Z = 5.242593065912192E+07
 VX=-2.240837618036635E+01 VY= 6.593428885597399E+00 VZ= 7.532001674736954E+00
 LT= 4.910717253160633E+02 RG= 1.472195995868034E+08 RR=-1.881853466394729E+00
2456257.086805556 = A.D. 2012-Nov-25 14:05:00.0000 TDB 
 X = 6.556310841031221E+07 Y = 1.209392218120914E+08 Z = 5.242804112943920E+07
 VX=-2.076689049723662E+01 VY= 8.141968999089448E+00 VZ= 6.505294470581197E+00
 LT= 4.910706553228831E+02 RG= 1.472192788109179E+08 RR=-2.431655179522373E-01
2456257.090277778 = A.D. 2012-Nov-25 14:10:00.0000 TDB 
 X = 6.555704110634495E+07 Y = 1.209419514642175E+08 Z = 5.242982018160181E+07
 VX=-1.980630868045388E+01 VY= 1.010899056365915E+01 VZ= 5.342491326894239E+00
 LT= 4.910712359614204E+02 RG= 1.472194528819722E+08 RR= 1.387479095764736E+00
2456257.093750000 = A.D. 2012-Nov-25 14:15:00.0000 TDB 
 X = 6.555114605749909E+07 Y = 1.209453080965658E+08 Z = 5.243124545199335E+07
 VX=-1.962879279422390E+01 VY= 1.228422515513071E+01 VZ= 4.168000610394923E+00
 LT= 4.910733713550090E+02 RG= 1.472200930568649E+08 RR= 2.836317971995156E+00
2456257.097222222 = A.D. 2012-Nov-25 14:20:00.0000 TDB 
 X = 6.554518338562551E+07 Y = 1.209493195896692E+08 Z = 5.243233240318381E+07
 VX=-2.025306068101148E+01 VY= 1.443546695937903E+01 VZ= 3.107347282690650E+00
 LT= 4.910768000569599E+02 RG= 1.472211209558505E+08 RR= 3.949126267225358E+00
2456257.100694444 = A.D. 2012-Nov-25 14:25:00.0000 TDB 
 X = 6.553892046495911E+07 Y = 1.209539439222563E+08 Z = 5.243313265609688E+07
 VX=-2.161245019796476E+01 VY= 1.633304945758847E+01 VZ= 2.273909876977291E+00
 LT= 4.910811229555335E+02 RG= 1.472224169282396E+08 RR= 4.607439043426954E+00
2456257.104166667 = A.D. 2012-Nov-25 14:30:00.0000 TDB 
 X = 6.553215672657461E+07 Y = 1.209590736195088E+08 Z = 5.243372848829603E+07
 VX=-2.356177677010593E+01 VY= 1.777421243633559E+01 VZ= 1.756830244543601E+00
 LT= 4.910858457385829E+02 RG= 1.472238327829786E+08 RR= 4.741184694136602E+00
2456257.107638889 = A.D. 2012-Nov-25 14:35:00.0000 TDB 
 X = 6.552474512216265E+07 Y = 1.209645471937830E+08 Z = 5.243422403633566E+07
 VX=-2.589262324083128E+01 VY= 1.860492633780033E+01 VZ= 1.611349491755673E+00
 LT= 4.910904316181247E+02 RG= 1.472252075950785E+08 RR= 4.336341733227363E+00
$$EOE
